#dP2020  6 29  0  0  0.00000000      97 __u+U IGS14 FIT  IAC
## 2112  86400.00000000   900.00000000 59029 0.0000000000000
+  120   C01C02C03C04C06C07C08C09C10C11C12C13C14C16C19C20C21
+        C22C23C24C25C26C27C28C29C30C32C33C34C35C36C37C38C39
+        C40C43C44C45C46E01E02E03E04E05E07E08E09E11E12E13E14
+        E15E18E19E21E24E25E26E27E30E31E33E36G01G02G03G04G05
+        G06G07G08G09G10G11G12G13G14G15G16G17G18G19G20G21G22
+        G24G25G26G27G28G29G30G31G32J01J02J03J07R01R02R03R04
+        R05R07R08R09R11R12R13R14R15R16R17R18R19R20R21R23R24
+        R26  0  0  0  0  0  0  0  0  0  0  0  0  0  0  0  0
++         0  0  0  0  0  0  0  0  0  0  0  0  0  0  0  0  0
++         0  0  0  0  0  0  0  0  0  0  0  0  0  0  0  0  0
++         0  0  0  0  0  0  0  0  0  0  0  0  0  0  0  0  0
++         0  0  0  0  0  0  0  0  0  0  0  0  0  0  0  0  0
++         0  0  0  0  0  0  0  0  0  0  0  0  0  0  0  0  0
++         0  0  0  0  0  0  0  0  0  0  0  0  0  0  0  0  0
++         0  0  0  0  0  0  0  0  0  0  0  0  0  0  0  0  0
++         0  0  0  0  0  0  0  0  0  0  0  0  0  0  0  0  0
%c M  cc GPS ccc cccc cccc cccc cccc ccccc ccccc ccccc ccccc
%c cc cc ccc ccc cccc cccc cccc cccc ccccc ccccc ccccc ccccc
%f  1.2500000  1.025000000  0.00000000000  0.000000000000000
%f  0.0000000  0.000000000  0.00000000000  0.000000000000000
%i    0    0    0    0      0      0      0      0         0
%i    0    0    0    0      0      0      0      0         0
/* INFORMATION & ANALYSIS CENTER (IAC)            FINAL DATA
/* S/V CLOCKS ARE ALIGNED TO GNSS TIME                      
/* G:C1WC2W R:C1PC2P E:C1XC5X C:C2IC6I J:C1CC2S             
/* PCV:IGS14_2108 OL/AL:FES2004  NONE     YN ORB:CoN CLK:CoN
*  2020 06 29 23 45  0.00000000
PC01 -34316.314998  24531.781066    612.020600   -371.868526
PC02   4389.547620  41904.147400  -1437.009901    248.835818
PC03 -14702.985740  39484.156692   -708.073094    843.565985
PC04 -39594.553157  14478.299661    282.135732   -136.516084
PC06 -10671.510957  36954.622431 -16366.930456    767.060168
PC07 -12502.590386  23252.985157  33061.460878      5.645871
PC08 -25212.996318  29006.320511 -17645.471589   -342.962024
PC09  -1346.242452  41891.488428  -1285.086847    643.609640
PC10   3576.564529  28438.284321  31223.630014   -249.331481
PC11  -4377.093618 -23552.023381  14321.860413   -459.974612
PC12   7755.578774 -26600.937752  -3162.048518    416.164313
PC13 -11228.195466  29555.131118 -27951.307703    517.118290
PC14 -14799.451667 -21679.674481   9411.810401    599.950735
PC16  -8593.711704  38443.559412 -14700.420961   -607.797145
PC19  20873.081533  18536.134121   -369.903790    459.759684
PC20   7536.553956  21472.148038 -16155.475309   -844.954843
PC21  10900.355792 -11646.652228  22918.758592   -592.786279
PC22  22388.053232   4839.884796  15972.937514   -778.263496
PC23 -26885.650453   4036.554190  -6268.969538   -847.749289
PC24   2946.408739 -17225.255735 -21753.324466   -778.235502
PC25 -17671.869126  -8651.425061 -19795.491619   -669.130822
PC26  20055.458126 -15666.327856 -11417.976270    736.628516
PC27 -13084.074059  21670.920824  11704.108858    356.015435
PC28 -16498.498990   3345.615966  22256.028265   -205.564137
PC29  10897.121801  16465.120976 -19730.411945    249.278890
PC30  -1231.976908  27355.290794  -5329.074180    339.317287
PC32 -10761.859147  11767.046494 -22882.641303   -876.349641
PC33 -20891.944529 -18475.299671    487.452603   -805.311190
PC34    992.311266 -27296.159364   5765.009860   -857.676369
PC35  16430.223112  -3698.945892 -22262.246477   -773.212634
PC36  17249.430894   9225.124559  19935.268443   -856.863539
PC37 -20911.939882  14968.427105  10867.976654   -859.527223
PC38 -21834.537914  30580.472136 -19254.437271     86.206206
PC39  -5260.867415  39412.929937 -13845.468390     18.422143
PC40  -2910.753437  23128.519644  35162.271206     57.054200
PC43 -10714.203968 -16858.578549  19487.598771   -260.664509
PC44  12541.017611 -21963.347751 -11837.510197   -298.641351
PC45  26860.531735  -4136.801278   6322.429531    167.856472
PC46  -2357.676574  17046.328054  21986.710313    760.256309
PE01  12305.927969 -13965.168213 -23013.800114   -888.129137
PE02 -12205.120028  14001.188140  23049.163122    143.901347
PE03  -4759.448999  22494.255820 -18645.787934   -315.286650
PE04  -9919.247860 -27768.794889   2566.616745   -555.968882
PE05 -16852.233464   3939.550294 -24004.886930   -367.389813
PE07  19012.543349  16759.613321  15315.401355   -402.378057
PE08  10280.615621  27668.489333  -2335.288026   6156.658562
PE09 -19034.163374 -16573.408447 -15439.980799   6012.405845
PE11 -15632.805118  -5882.136314  24424.585019   3782.913256
PE12    183.817933 -22133.292286  19659.012530   5730.519237
PE13  15462.417017   5999.090066 -24518.087202    401.964539
PE14  15215.396148  22101.017457 -16213.032338  -1067.111098
PE15     54.967175  21972.022096 -19830.737765    861.746469
PE18  -6265.244831 -23855.428371   5667.711853  -1169.082067
PE19   6234.748587 -20953.418370  19966.136970     15.547407
PE21  27482.830811  -3705.684326 -10359.173910   -607.373697
PE24 -26695.701802  -9275.102570  -8836.728992   5376.449129
PE25 -27531.948867   3625.377998  10248.188294   -512.897132
PE26  21952.513588 -13690.238412 -14381.669179   3015.853059
PE27  26879.622545   8952.455466   8580.685803    187.861624
PE30   9964.097798  16434.538946  22503.819890   3786.317696
PE31 -10495.768574 -16279.858933 -22372.128811   -473.048498
PE33  15393.303968 -25045.428817   3492.277884   -465.505436
PE36 -21788.183045  13489.597348  14809.838452    540.471800
PG01 -11268.960941  20019.119790 -13257.852422     18.845049
PG02  21662.516455 -13563.666009  -6490.447442   -479.850323
PG03  -2270.624264  15240.456114 -21712.122803   -224.666473
PG04   -869.916651  25967.498233  -5416.102216   -108.725892
PG05  21004.089496  -4259.111578  15673.532618    -15.651348
PG06  20593.951626  -2098.557548 -16613.535650   -296.199229
PG07   6484.871704  14400.689163  21618.435462   -316.009883
PG08  -7642.716511  19928.994777  15650.464907    -39.287134
PG09   8063.249592  24655.147112   5620.513721   -245.169395
PG10 -23748.753989 -11767.752095   3237.471145   -385.758341
PG11 -11626.102268  24051.614848    606.856051   -234.779912
PG12   3109.880278 -14937.316929 -21990.057526     99.975235
PG13  13060.726508 -12545.038498  19276.774531     22.543964
PG14 -15112.222152  -3646.549514 -21204.407208     -2.258101
PG15   5780.174369 -21093.123116  14487.982854   -220.860844
PG16 -19611.518984   3373.000567  17592.853308   -176.627281
PG17  13388.124664  13303.683517 -18286.631508    288.459290
PG18  -5704.215949 -14414.980683  21552.822226    233.714503
PG19  14795.421534   4870.611414 -21820.845095   -138.544110
PG20 -17141.822106 -14854.726122  13919.609174    527.406195
PG21 -17037.568393  -4298.723589  20611.498747     17.763033
PG22 -10468.321681  12815.258049 -20544.114181   -775.164315
PG24  11703.618055 -21144.069239 -10782.863254    -15.010426
PG25  -8407.910178 -17270.577155 -18692.549800     18.079120
PG26 -25466.672488  -3774.064856   6956.209641    234.529972
PG27 -12911.764924   9430.986938  20996.402901   -333.422651
PG28  22862.146210  13262.953884   2148.719202    704.155898
PG29  -3237.913582 -26274.998347   1856.713482   -139.246186
PG30  16093.361281   6519.128083  20197.890058   -252.051791
PG31 -21862.703179   3052.370301 -15133.372613    -52.400215
PG32 -15016.155948 -11652.029813 -18527.181112    308.807184
PJ01 -22291.297918  18754.931071 -25877.009701   -279.781012
PJ02 -30928.337516  23272.656788  21484.618113     -0.853208
PJ03 -27449.543418  27825.922012  20711.608870     -4.689478
PJ07 -25353.408691  33686.497776    -11.582813     -0.012825
PR01 -17601.742249 -17684.197301  -5253.839515     63.813002
PR02 -13919.624824  -1549.210330 -21288.210954    433.967298
PR03  -2060.854585  13839.734250 -21271.041859     17.660913
PR04  10977.207491  21093.795830  -9200.312675     54.547922
PR05  17651.807540  16530.113419   8099.380006     53.214309
PR07   1594.844118 -14316.422193  21101.462671    -38.020446
PR08 -10857.655692 -21158.753975   9299.427407    -53.155130
PR09  23667.484453  -6814.022573  -6767.216782    140.753534
PR11  -5442.375957 -10317.088755 -22662.781540    -28.832477
PR12 -20792.094609  -3851.795066 -14249.249976    143.141632
PR13 -24843.937958   5094.290086   2688.868323    -40.609729
PR14 -14174.218790  10846.558503  18228.972480     52.816799
PR15   4468.617335  10366.856546  22896.575351    106.916429
PR16  21163.907348   3282.387521  13743.299411     -4.416374
PR17 -11268.826830  22532.616804   4125.570813    337.189070
PR18  -2964.954725  21960.700655 -12578.463720     40.577505
PR19   6378.672994  10321.972612 -22444.228300   -100.174211
PR20  13672.633655  -9668.563705 -19257.786526   -415.511001
PR21  10953.910792 -22803.568600  -3163.364275   -134.789427
PR23  -9938.444993  -3247.119922  23252.672890    315.444710
PR24 -14037.140121  10272.969364  18672.644186      4.480785
PR26  12579.416243  -4986.972120 -21609.574087   -391.953288
EOF
